ONEWEB-0255             
1 48973U 21060G   25223.20456873  .00000059  00000+0  11988-3 0  9992
2 48973  87.9030 290.5820 0001939  88.7413 271.3940 13.16592770198879
ONEWEB-0256             
1 48974U 21060H   25223.15469992  .00000104  00000+0  23769-3 0  9994
2 48974  87.9028 290.6029 0002133  99.2313 260.9059 13.16593600198836
ONEWEB-0257             
1 48975U 21060J   25223.11115872  .00000087  00000+0  19298-3 0  9998
2 48975  87.9034 290.5787 0002089  91.0404 269.0967 13.16593186198786
ONEWEB-0258             
1 48976U 21060K   25223.11275474  .00000112  00000+0  25936-3 0  9999
2 48976  87.9031 290.6029 0001936  97.1818 262.9533 13.16594324198797
ONEWEB-0259             
1 48977U 21060L   25223.18240562  .00000157  00000+0  37658-3 0  9990
2 48977  87.9033 290.5738 0001920  92.4007 267.7343 13.16593414198833
ONEWEB-0260             
1 48978U 21060M   25223.17370183  .00000161  00000+0  38785-3 0  9990
2 48978  87.9028 290.6008 0002547  97.6294 262.5126 13.16593840198813
ONEWEB-0261             
1 48979U 21060N   25222.91562566 -.00000085  00000+0 -25578-3 0  9993
2 48979  87.9029 290.6537 0002271  86.5853 273.5537 13.16594842198837
ONEWEB-0262             
1 48980U 21060P   25223.19984016  .00000111  00000+0  25764-3 0  9999
2 48980  87.9037 290.5594 0001768  90.2642 269.8692 13.16594767198834
ONEWEB-0263             
1 48981U 21060Q   25223.15550539  .00000106  00000+0  24258-3 0  9996
2 48981  87.9029 290.5919 0002003  83.4756 276.6602 13.16595112198797
ONEWEB-0264             
1 48982U 21060R   25223.11670928  .00000098  00000+0  22395-3 0  9998
2 48982  87.9030 290.6045 0002022  93.4060 266.7302 13.16593312198798
ONEWEB-0266             
1 48984U 21060T   25222.91009385 -.00000053  00000+0 -17229-3 0  9993
2 48984  87.9035 290.6211 0001833  98.6603 261.4736 13.16593822198754
ONEWEB-0267             
1 48985U 21060U   25222.92117542 -.00000095  00000+0 -28284-3 0  9999
2 48985  87.9034 290.6215 0002135  89.9166 270.2209 13.16593678198764
ONEWEB-0268             
1 48986U 21060V   25223.11748899  .00000095  00000+0  21446-3 0  9998
2 48986  87.9036 290.5880 0002135  96.3834 263.7540 13.16593366199050
ONEWEB-0269             
1 48987U 21060W   25222.94647820  .00000112  00000+0  26001-3 0  9993
2 48987  87.9030 290.6545 0002094 101.3202 258.8165 13.16592691198804
ONEWEB-0270             
1 48988U 21060X   25223.11590711  .00000074  00000+0  15988-3 0  9999
2 48988  87.9031 290.5906 0001936  83.4834 276.6518 13.16592998198867
ONEWEB-0271             
1 48989U 21060Y   25222.95125812  .00000069  00000+0  14740-3 0  9996
2 48989  87.9035 290.6070 0002112  89.5304 270.6069 13.16593993198840
ONEWEB-0272             
1 48990U 21060Z   25222.74542239  .00000060  00000+0  12326-3 0  9990
2 48990  87.9031 290.6775 0002212  90.9292 269.2093 13.16592905198767
