[{"OBJECT_NAME":"ONEWEB-0255","OBJECT_ID":"2021-060G","EPOCH":"2025-08-11T04:54:34.738272","MEAN_MOTION":13.1659277,"ECCENTRICITY":0.0001939,"INCLINATION":87.903,"RA_OF_ASC_NODE":290.582,"ARG_OF_PERICENTER":88.7413,"MEAN_ANOMALY":271.394,"EPHEMERIS_TYPE":0,"CLASSIFICATION_TYPE":"U","NORAD_CAT_ID":48973,"ELEMENT_SET_NO":999,"REV_AT_EPOCH":19887,"BSTAR":0.00011988,"MEAN_MOTION_DOT":5.9e-7,"MEAN_MOTION_DDOT":0},{"OBJECT_NAME":"ONEWEB-0256","OBJECT_ID":"2021-060H","EPOCH":"2025-08-11T03:42:46.073088","MEAN_MOTION":13.165936,"ECCENTRICITY":0.0002133,"INCLINATION":87.9028,"RA_OF_ASC_NODE":290.6029,"ARG_OF_PERICENTER":99.2313,"MEAN_ANOMALY":260.9059,"EPHEMERIS_TYPE":0,"CLASSIFICATION_TYPE":"U","NORAD_CAT_ID":48974,"ELEMENT_SET_NO":999,"REV_AT_EPOCH":19883,"BSTAR":0.00023769,"MEAN_MOTION_DOT":1.04e-6,"MEAN_MOTION_DDOT":0},{"OBJECT_NAME":"ONEWEB-0257","OBJECT_ID":"2021-060J","EPOCH":"2025-08-11T02:40:04.113408","MEAN_MOTION":13.16593186,"ECCENTRICITY":0.0002089,"INCLINATION":87.9034,"RA_OF_ASC_NODE":290.5787,"ARG_OF_PERICENTER":91.0404,"MEAN_ANOMALY":269.0967,"EPHEMERIS_TYPE":0,"CLASSIFICATION_TYPE":"U","NORAD_CAT_ID":48975,"ELEMENT_SET_NO":999,"REV_AT_EPOCH":19878,"BSTAR":0.00019298,"MEAN_MOTION_DOT":8.7e-7,"MEAN_MOTION_DDOT":0},{"OBJECT_NAME":"ONEWEB-0258","OBJECT_ID":"2021-060K","EPOCH":"2025-08-11T02:42:22.009536","MEAN_MOTION":13.16594324,"ECCENTRICITY":0.0001936,"INCLINATION":87.9031,"RA_OF_ASC_NODE":290.6029,"ARG_OF_PERICENTER":97.1818,"MEAN_ANOMALY":262.9533,"EPHEMERIS_TYPE":0,"CLASSIFICATION_TYPE":"U","NORAD_CAT_ID":48976,"ELEMENT_SET_NO":999,"REV_AT_EPOCH":19879,"BSTAR":0.00025936,"MEAN_MOTION_DOT":1.12e-6,"MEAN_MOTION_DDOT":0},{"OBJECT_NAME":"ONEWEB-0259","OBJECT_ID":"2021-060L","EPOCH":"2025-08-11T04:22:39.845568","MEAN_MOTION":13.16593414,"ECCENTRICITY":0.000192,"INCLINATION":87.9033,"RA_OF_ASC_NODE":290.5738,"ARG_OF_PERICENTER":92.4007,"MEAN_ANOMALY":267.7343,"EPHEMERIS_TYPE":0,"CLASSIFICATION_TYPE":"U","NORAD_CAT_ID":48977,"ELEMENT_SET_NO":999,"REV_AT_EPOCH":19883,"BSTAR":0.00037658,"MEAN_MOTION_DOT":1.57e-6,"MEAN_MOTION_DDOT":0},{"OBJECT_NAME":"ONEWEB-0260","OBJECT_ID":"2021-060M","EPOCH":"2025-08-11T04:10:07.838112","MEAN_MOTION":13.1659384,"ECCENTRICITY":0.0002547,"INCLINATION":87.9028,"RA_OF_ASC_NODE":290.6008,"ARG_OF_PERICENTER":97.6294,"MEAN_ANOMALY":262.5126,"EPHEMERIS_TYPE":0,"CLASSIFICATION_TYPE":"U","NORAD_CAT_ID":48978,"ELEMENT_SET_NO":999,"REV_AT_EPOCH":19881,"BSTAR":0.00038785,"MEAN_MOTION_DOT":1.61e-6,"MEAN_MOTION_DDOT":0},{"OBJECT_NAME":"ONEWEB-0261","OBJECT_ID":"2021-060N","EPOCH":"2025-08-10T21:58:30.057024","MEAN_MOTION":13.16594842,"ECCENTRICITY":0.0002271,"INCLINATION":87.9029,"RA_OF_ASC_NODE":290.6537,"ARG_OF_PERICENTER":86.5853,"MEAN_ANOMALY":273.5537,"EPHEMERIS_TYPE":0,"CLASSIFICATION_TYPE":"U","NORAD_CAT_ID":48979,"ELEMENT_SET_NO":999,"REV_AT_EPOCH":19883,"BSTAR":-0.00025578,"MEAN_MOTION_DOT":-8.5e-7,"MEAN_MOTION_DDOT":0},{"OBJECT_NAME":"ONEWEB-0262","OBJECT_ID":"2021-060P","EPOCH":"2025-08-11T04:47:46.189824","MEAN_MOTION":13.16594767,"ECCENTRICITY":0.0001768,"INCLINATION":87.9037,"RA_OF_ASC_NODE":290.5594,"ARG_OF_PERICENTER":90.2642,"MEAN_ANOMALY":269.8692,"EPHEMERIS_TYPE":0,"CLASSIFICATION_TYPE":"U","NORAD_CAT_ID":48980,"ELEMENT_SET_NO":999,"REV_AT_EPOCH":19883,"BSTAR":0.00025764,"MEAN_MOTION_DOT":1.11e-6,"MEAN_MOTION_DDOT":0},{"OBJECT_NAME":"ONEWEB-0263","OBJECT_ID":"2021-060Q","EPOCH":"2025-08-11T03:43:55.665696","MEAN_MOTION":13.16595112,"ECCENTRICITY":0.0002003,"INCLINATION":87.9029,"RA_OF_ASC_NODE":290.5919,"ARG_OF_PERICENTER":83.4756,"MEAN_ANOMALY":276.6602,"EPHEMERIS_TYPE":0,"CLASSIFICATION_TYPE":"U","NORAD_CAT_ID":48981,"ELEMENT_SET_NO":999,"REV_AT_EPOCH":19879,"BSTAR":0.00024258,"MEAN_MOTION_DOT":1.06e-6,"MEAN_MOTION_DDOT":0},{"OBJECT_NAME":"ONEWEB-0264","OBJECT_ID":"2021-060R","EPOCH":"2025-08-11T02:48:03.681792","MEAN_MOTION":13.16593312,"ECCENTRICITY":0.0002022,"INCLINATION":87.903,"RA_OF_ASC_NODE":290.6045,"ARG_OF_PERICENTER":93.406,"MEAN_ANOMALY":266.7302,"EPHEMERIS_TYPE":0,"CLASSIFICATION_TYPE":"U","NORAD_CAT_ID":48982,"ELEMENT_SET_NO":999,"REV_AT_EPOCH":19879,"BSTAR":0.00022395,"MEAN_MOTION_DOT":9.8e-7,"MEAN_MOTION_DDOT":0},{"OBJECT_NAME":"ONEWEB-0266","OBJECT_ID":"2021-060T","EPOCH":"2025-08-10T21:50:32.108640","MEAN_MOTION":13.16593822,"ECCENTRICITY":0.0001833,"INCLINATION":87.9035,"RA_OF_ASC_NODE":290.6211,"ARG_OF_PERICENTER":98.6603,"MEAN_ANOMALY":261.4736,"EPHEMERIS_TYPE":0,"CLASSIFICATION_TYPE":"U","NORAD_CAT_ID":48984,"ELEMENT_SET_NO":999,"REV_AT_EPOCH":19875,"BSTAR":-0.00017229,"MEAN_MOTION_DOT":-5.3e-7,"MEAN_MOTION_DDOT":0},{"OBJECT_NAME":"ONEWEB-0267","OBJECT_ID":"2021-060U","EPOCH":"2025-08-10T22:06:29.556288","MEAN_MOTION":13.16593678,"ECCENTRICITY":0.0002135,"INCLINATION":87.9034,"RA_OF_ASC_NODE":290.6215,"ARG_OF_PERICENTER":89.9166,"MEAN_ANOMALY":270.2209,"EPHEMERIS_TYPE":0,"CLASSIFICATION_TYPE":"U","NORAD_CAT_ID":48985,"ELEMENT_SET_NO":999,"REV_AT_EPOCH":19876,"BSTAR":-0.00028284,"MEAN_MOTION_DOT":-9.5e-7,"MEAN_MOTION_DDOT":0},{"OBJECT_NAME":"ONEWEB-0268","OBJECT_ID":"2021-060V","EPOCH":"2025-08-11T02:49:11.048736","MEAN_MOTION":13.16593366,"ECCENTRICITY":0.0002135,"INCLINATION":87.9036,"RA_OF_ASC_NODE":290.588,"ARG_OF_PERICENTER":96.3834,"MEAN_ANOMALY":263.754,"EPHEMERIS_TYPE":0,"CLASSIFICATION_TYPE":"U","NORAD_CAT_ID":48986,"ELEMENT_SET_NO":999,"REV_AT_EPOCH":19905,"BSTAR":0.00021446,"MEAN_MOTION_DOT":9.5e-7,"MEAN_MOTION_DDOT":0},{"OBJECT_NAME":"ONEWEB-0269","OBJECT_ID":"2021-060W","EPOCH":"2025-08-10T22:42:55.716480","MEAN_MOTION":13.16592691,"ECCENTRICITY":0.0002094,"INCLINATION":87.903,"RA_OF_ASC_NODE":290.6545,"ARG_OF_PERICENTER":101.3202,"MEAN_ANOMALY":258.8165,"EPHEMERIS_TYPE":0,"CLASSIFICATION_TYPE":"U","NORAD_CAT_ID":48987,"ELEMENT_SET_NO":999,"REV_AT_EPOCH":19880,"BSTAR":0.00026001,"MEAN_MOTION_DOT":1.12e-6,"MEAN_MOTION_DDOT":0},{"OBJECT_NAME":"ONEWEB-0270","OBJECT_ID":"2021-060X","EPOCH":"2025-08-11T02:46:54.374304","MEAN_MOTION":13.16592998,"ECCENTRICITY":0.0001936,"INCLINATION":87.9031,"RA_OF_ASC_NODE":290.5906,"ARG_OF_PERICENTER":83.4834,"MEAN_ANOMALY":276.6518,"EPHEMERIS_TYPE":0,"CLASSIFICATION_TYPE":"U","NORAD_CAT_ID":48988,"ELEMENT_SET_NO":999,"REV_AT_EPOCH":19886,"BSTAR":0.00015988,"MEAN_MOTION_DOT":7.4e-7,"MEAN_MOTION_DDOT":0},{"OBJECT_NAME":"ONEWEB-0271","OBJECT_ID":"2021-060Y","EPOCH":"2025-08-10T22:49:48.701568","MEAN_MOTION":13.16593993,"ECCENTRICITY":0.0002112,"INCLINATION":87.9035,"RA_OF_ASC_NODE":290.607,"ARG_OF_PERICENTER":89.5304,"MEAN_ANOMALY":270.6069,"EPHEMERIS_TYPE":0,"CLASSIFICATION_TYPE":"U","NORAD_CAT_ID":48989,"ELEMENT_SET_NO":999,"REV_AT_EPOCH":19884,"BSTAR":0.0001474,"MEAN_MOTION_DOT":6.9e-7,"MEAN_MOTION_DDOT":0},{"OBJECT_NAME":"ONEWEB-0272","OBJECT_ID":"2021-060Z","EPOCH":"2025-08-10T17:53:24.494496","MEAN_MOTION":13.16592905,"ECCENTRICITY":0.0002212,"INCLINATION":87.9031,"RA_OF_ASC_NODE":290.6775,"ARG_OF_PERICENTER":90.9292,"MEAN_ANOMALY":269.2093,"EPHEMERIS_TYPE":0,"CLASSIFICATION_TYPE":"U","NORAD_CAT_ID":48990,"ELEMENT_SET_NO":999,"REV_AT_EPOCH":19876,"BSTAR":0.00012326,"MEAN_MOTION_DOT":6.0e-7,"MEAN_MOTION_DDOT":0}]
